NORAD_CAT_ID,OBJECT_NAME,OBJECT_TYPE,EPOCH,MEAN_MOTION,ECCENTRICITY,INCLINATION,RA_OF_ASC_NODE,ARG_OF_PERICENTER,MEAN_ANOMALY,BSTAR,MEAN_MOTION_DOT,MEAN_MOTION_DDOT,TLE_LINE0,TLE_LINE1,TLE_LINE2,SEMIMAJOR_AXIS,PERIOD,APOGEE,PERIGEE,DECAYED
52111.0,STARLINK-3708,PAYLOAD,2024-05-21 05:58:21,15.08835552,0.0001207,53.2172,150.4871,93.0309,267.0821,4.204e-05,3.81e-06,0.0,0 STARLINK-3708,1 52111U 22029Z   24142.24885951  .00000381  00000-0  42040-4 0  9996,2 52111  53.2172 150.4871 0001207  93.0309 267.0821 15.08835552121532,6917.894,95.438,540.594,538.924,0.0
52111.0,STARLINK-3708,PAYLOAD,2024-05-22 05:49:08,15.08838549,0.0001257,53.2174,146.0277,98.9453,261.1682,2.9332e-05,1.79e-06,0.0,0 STARLINK-3708,1 52111U 22029Z   24143.24245920  .00000179  00000-0  29332-4 0  9997,2 52111  53.2174 146.0277 0001257  98.9453 261.1682 15.08838549121689,6917.885,95.438,540.619,538.88,0.0
52111.0,STARLINK-3708,PAYLOAD,2024-05-23 10:26:05,15.08835063,0.0001198,53.2167,140.6732,94.8626,265.2502,4.4247e-05,4.16e-06,0.0,0 STARLINK-3708,1 52111U 22029Z   24144.43478398  .00000416  00000-0  44247-4 0  9992,2 52111  53.2167 140.6732 0001198  94.8626 265.2502 15.08835063121862,6917.895,95.438,540.589,538.932,0.0
52111.0,STARLINK-3708,PAYLOAD,2024-05-24 03:55:19,15.08843234,0.0001193,53.2167,137.404,96.9322,263.1805,9.9677e-05,1.299e-05,0.0,0 STARLINK-3708,1 52111U 22029Z   24145.16341694  .00001299  00000-0  99677-4 0  9998,2 52111  53.2167 137.4040 0001193  96.9322 263.1805 15.08843234121973,6917.871,95.437,540.561,538.91,0.0
52111.0,STARLINK-3708,PAYLOAD,2024-05-24 08:41:28,15.08847797,0.0001224,53.2164,136.511,97.9895,262.1236,0.00013687,1.892e-05,0.0,0 STARLINK-3708,1 52111U 22029Z   24145.36213264  .00001892  00000-0  13687-3 0  9996,2 52111  53.2164 136.5110 0001224  97.9895 262.1236 15.08847797122009,6917.857,95.437,540.568,538.875,0.0
52111.0,STARLINK-3708,PAYLOAD,2024-05-24 22:59:56,15.08840442,0.0001231,53.2161,133.834,122.5588,237.5523,5.3105e-05,5.57e-06,0.0,0 STARLINK-3708,1 52111U 22029Z   24145.95829796  .00000557  00000-0  53105-4 0  9991,2 52111  53.2161 133.8340 0001231 122.5588 237.5523 15.08840442122097,6917.879,95.438,540.596,538.892,0.0
52111.0,STARLINK-3708,PAYLOAD,2024-05-25 03:46:06,15.08837817,0.0001279,53.216,132.9409,102.4481,257.6654,3.329e-05,2.42e-06,0.0,0 STARLINK-3708,1 52111U 22029Z   24146.15702104  .00000242  00000-0  33290-4 0  9991,2 52111  53.2160 132.9409 0001279 102.4481 257.6654 15.08837817122127,6917.887,95.438,540.637,538.867,0.0
52111.0,STARLINK-3708,PAYLOAD,2024-05-25 05:21:29,15.08836398,0.0001366,53.2169,132.6462,103.5265,256.5879,2.4659e-05,1.05e-06,0.0,0 STARLINK-3708,1 52111U 22029Z   24146.22326265  .00000105  00000-0  24659-4 0  9996,2 52111  53.2169 132.6462 0001366 103.5265 256.5879 15.08836398122132,6917.891,95.438,540.701,538.811,0.0
52111.0,STARLINK-3708,PAYLOAD,2024-05-25 16:29:12,15.08824826,0.0001131,53.2165,130.5633,142.547,217.5601,-0.0001319,-2.385e-05,0.0,0 STARLINK-3708,1 52111U 22029Z   24146.68695037 -.00002385  00000-0 -13190-3 0  9993,2 52111  53.2165 130.5633 0001131 142.5470 217.5601 15.08824826122207,6917.927,95.439,540.574,539.009,0.0
52111.0,STARLINK-3708,PAYLOAD,2024-05-26 05:12:16,15.08841896,0.0001298,53.2167,128.1847,89.6421,270.472,-3.5421e-05,-8.52e-06,0.0,0 STARLINK-3708,1 52111U 22029Z   24147.21686100 -.00000852  00000-0 -35421-4 0  9993,2 52111  53.2167 128.1847 0001298  89.6421 270.4720 15.08841896122284,6917.875,95.437,540.638,538.842,0.0
52111.0,STARLINK-3708,PAYLOAD,2024-05-26 08:23:02,15.08845368,0.0001343,53.2169,127.5896,104.4933,255.6208,-4.2775e-05,-9.69e-06,0.0,0 STARLINK-3708,1 52111U 22029Z   24147.34933829 -.00000969  00000-0 -42775-4 0  9999,2 52111  53.2169 127.5896 0001343 104.4933 255.6208 15.08845368122305,6917.864,95.437,540.658,538.8,0.0
52111.0,STARLINK-3708,PAYLOAD,2024-05-26 16:19:58,15.0883773,0.0001304,53.2164,126.1023,114.6258,245.487,-2.9018e-05,-7.5e-06,0.0,0 STARLINK-3708,1 52111U 22029Z   24147.68054172 -.00000750  00000-0 -29018-4 0  9994,2 52111  53.2164 126.1023 0001304 114.6258 245.4870 15.08837730122358,6917.887,95.438,540.654,538.85,0.0
52111.0,STARLINK-3708,PAYLOAD,2024-05-27 05:03:04,15.08834276,0.0001464,53.2173,123.724,88.3584,271.7576,1.5036e-05,-4.9e-07,0.0,0 STARLINK-3708,1 52111U 22029Z   24148.21046574 -.00000049  00000-0  15036-4 0  9996,2 52111  53.2173 123.7240 0001464  88.3584 271.7576 15.08834276122434,6917.898,95.438,540.776,538.75,0.0
52111.0,STARLINK-3708,PAYLOAD,2024-05-28 03:18:27,15.08840269,0.0001428,53.2171,119.5597,102.4676,257.6476,7.073e-05,8.38e-06,0.0,0 STARLINK-3708,1 52111U 22029Z   24149.13782008  .00000838  00000-0  70730-4 0  9994,2 52111  53.2171 119.5597 0001428 102.4676 257.6476 15.08840269122576,6917.88,95.438,540.732,538.757,0.0
52111.0,STARLINK-3708,PAYLOAD,2024-05-28 08:04:36,15.08841502,0.0001441,53.2173,118.6678,100.952,259.1635,7.6565e-05,9.31e-06,0.0,0 STARLINK-3708,1 52111U 22029Z   24149.33653922  .00000931  00000-0  76565-4 0  9994,2 52111  53.2173 118.6678 0001441 100.9520 259.1635 15.08841502122603,6917.876,95.437,540.738,538.744,0.0
52111.0,STARLINK-3708,PAYLOAD,2024-05-29 04:44:38,15.08832973,0.0001408,53.2177,114.8018,99.1397,260.9754,-1.221e-06,-3.07e-06,0.0,0 STARLINK-3708,1 52111U 22029Z   24150.19766907 -.00000307  00000-0 -12210-5 0  9995,2 52111  53.2177 114.8018 0001408  99.1397 260.9754 15.08832973122735,6917.902,95.438,540.741,538.793,0.0
52111.0,STARLINK-3708,PAYLOAD,2024-05-29 20:38:29,15.08839757,0.0001366,53.2175,111.8272,101.3126,258.802,-1.4714e-05,-5.22e-06,0.0,0 STARLINK-3708,1 52111U 22029Z   24150.86006741 -.00000522  00000-0 -14714-4 0  9991,2 52111  53.2175 111.8272 0001366 101.3126 258.8020 15.08839757122831,6917.881,95.438,540.691,538.801,0.0
52111.0,STARLINK-3708,PAYLOAD,2024-05-30 03:00:01,15.08843451,0.0001424,53.2177,110.6395,110.899,249.2154,1.8143e-05,1e-08,0.0,0 STARLINK-3708,1 52111U 22029Z   24151.12502283  .00000001  00000-0  18143-4 0  9993,2 52111  53.2177 110.6395 0001424 110.8990 249.2154 15.08843451122877,6917.87,95.437,540.72,538.75,0.0
52111.0,STARLINK-3708,PAYLOAD,2024-05-30 03:00:02,15.08844565,0.0001286,53.2173,110.6413,111.7612,248.3517,-1.1025e-05,-4.63e-06,0.0,0 STARLINK-3708,1 52111U 22029Z   24151.12502360 -.00000463  00000-0 -11025-4 0  9995,2 52111  53.2173 110.6413 0001286 111.7612 248.3517 15.08844565122871,6917.866,95.437,540.621,538.842,0.0
52111.0,STARLINK-3708,PAYLOAD,2024-05-30 20:29:16,15.08837523,0.0001216,53.2176,107.3707,98.7999,261.3131,6.9754e-05,8.22e-06,0.0,0 STARLINK-3708,1 52111U 22029Z   24151.85366570  .00000822  00000-0  69754-4 0  9995,2 52111  53.2176 107.3707 0001216  98.7999 261.3131 15.08837523122983,6917.888,95.438,540.594,538.912,0.0
52111.0,STARLINK-3708,PAYLOAD,2024-05-31 04:26:12,15.08838208,0.0001161,53.2172,105.883,90.561,269.5516,3.6812e-05,2.98e-06,0.0,0 STARLINK-3708,1 52111U 22029Z   24152.18486760  .00000298  00000-0  36812-4 0  9992,2 52111  53.2172 105.8830 0001161  90.5610 269.5516 15.08838208123033,6917.886,95.438,540.554,538.948,0.0
52111.0,STARLINK-3708,PAYLOAD,2024-05-31 07:36:58,15.08840052,0.0001174,53.2169,105.2877,97.3101,262.8024,4.8924e-05,4.91e-06,0.0,0 STARLINK-3708,1 52111U 22029Z   24152.31734592  .00000491  00000-0  48924-4 0  9998,2 52111  53.2169 105.2877 0001174  97.3101 262.8024 15.08840052123050,6917.88,95.438,540.557,538.933,0.0
52111.0,STARLINK-3708,PAYLOAD,2024-06-01 04:16:59,15.08845514,0.000121,53.2171,101.4227,83.629,276.484,4.4198e-05,4.16e-06,0.0,0 STARLINK-3708,1 52111U 22029Z   24153.17846295  .00000416  00000-0  44198-4 0  9993,2 52111  53.2171 101.4227 0001210  83.6290 276.4840 15.08845514123187,6917.864,95.437,540.566,538.891,0.0
52111.0,STARLINK-3708,PAYLOAD,2024-06-01 13:49:18,15.08839823,0.000122,53.2181,99.6381,79.4258,280.6872,3.4871e-07,-2.82e-06,0.0,0 STARLINK-3708,1 52111U 22029Z   24153.57590773 -.00000282  00000-0  34871-6 0  9995,2 52111  53.2181  99.6381 0001220  79.4258 280.6872 15.08839823123240,6917.881,95.438,540.59,538.902,0.0
52111.0,STARLINK-3708,PAYLOAD,2024-06-02 13:40:05,15.08838591,0.0001366,53.2185,95.1768,87.6996,272.4153,2.287e-05,7.6e-07,0.0,0 STARLINK-3708,1 52111U 22029Z   24154.56951010  .00000076  00000-0  22870-4 0  9994,2 52111  53.2185  95.1768 0001366  87.6996 272.4153 15.08838591123393,6917.885,95.438,540.695,538.805,0.0
52111.0,STARLINK-3708,PAYLOAD,2024-06-02 20:01:38,15.08835445,0.0001258,53.218,93.9883,86.6638,273.4498,1.309e-05,-8e-07,0.0,0 STARLINK-3708,1 52111U 22029Z   24154.83447271 -.00000080  00000-0  13090-4 0  9993,2 52111  53.2180  93.9883 0001258  86.6638 273.4498 15.08835445123437,6917.894,95.438,540.63,538.889,0.0
52111.0,STARLINK-3708,PAYLOAD,2024-06-03 05:33:56,15.08846777,0.0001441,53.2184,92.2031,95.5179,264.5978,1.1285e-05,-1.08e-06,0.0,0 STARLINK-3708,1 52111U 22029Z   24155.23190618 -.00000108  00000-0  11285-4 0  9993,2 52111  53.2184  92.2031 0001441  95.5179 264.5978 15.08846777123491,6917.86,95.437,540.722,538.728,0.0
52111.0,STARLINK-3708,PAYLOAD,2024-06-04 02:13:57,15.08833296,0.0001478,53.2192,88.3368,98.4184,261.6975,0.00019474,2.812e-05,0.0,0 STARLINK-3708,1 52111U 22029Z   24156.09302986  .00002812  00000-0  19474-3 0  9991,2 52111  53.2192  88.3368 0001478  98.4184 261.6975 15.08833296123629,6917.901,95.438,540.788,538.743,0.0
52111.0,STARLINK-3708,PAYLOAD,2024-06-04 05:24:43,15.08842902,0.0001551,53.2192,87.7419,100.4596,259.657,0.00010173,1.332e-05,0.0,0 STARLINK-3708,1 52111U 22029Z   24156.22550573  .00001332  00000-0  10173-3 0  9996,2 52111  53.2192  87.7419 0001551 100.4596 259.6570 15.08842902123646,6917.872,95.437,540.809,538.664,0.0
52111.0,STARLINK-3708,PAYLOAD,2024-06-04 22:53:58,15.08837938,0.0001534,53.2188,84.4701,101.8669,258.2495,3.6311e-05,2.9e-06,0.0,0 STARLINK-3708,1 52111U 22029Z   24156.95415122  .00000290  00000-0  36311-4 0  9991,2 52111  53.2188  84.4701 0001534 101.8669 258.2495 15.08837938123752,6917.887,95.438,540.813,538.69,0.0
